[{"OBJECT_NAME":"XCUBE-1","OBJECT_ID":"2024-247Z","EPOCH":"2026-03-09T11:35:28.885344","MEAN_MOTION":15.27910558,"ECCENTRICITY":0.00052355,"INCLINATION":44.9938,"RA_OF_ASC_NODE":117.7807,"ARG_OF_PERICENTER":331.1499,"MEAN_ANOMALY":28.9094,"EPHEMERIS_TYPE":0,"CLASSIFICATION_TYPE":"U","NORAD_CAT_ID":62400,"ELEMENT_SET_NO":999,"REV_AT_EPOCH":6770,"BSTAR":0.00036224252,"MEAN_MOTION_DOT":9.773e-5,"MEAN_MOTION_DDOT":0},{"OBJECT_NAME":"STARLINK-34142","OBJECT_ID":"2025-099F","EPOCH":"2026-03-08T09:07:08.038560","MEAN_MOTION":15.27584978,"ECCENTRICITY":0.00012078,"INCLINATION":43.0005,"RA_OF_ASC_NODE":183.8245,"ARG_OF_PERICENTER":272.8686,"MEAN_ANOMALY":87.2027,"EPHEMERIS_TYPE":0,"CLASSIFICATION_TYPE":"U","NORAD_CAT_ID":63957,"ELEMENT_SET_NO":999,"REV_AT_EPOCH":4713,"BSTAR":0.0021135314,"MEAN_MOTION_DOT":0.00058368,"MEAN_MOTION_DDOT":0}]
