XCUBE-1                 
1 62400U 24247Z   26068.48297321  .00009773  00000+0  36224-3 0  9994
2 62400  44.9938 117.7807 0005235 331.1499  28.9094 15.27910558 67702
STARLINK-34142          
1 63957U 25099F   26067.37995415  .00058368  00000+0  21135-2 0  9992
2 63957  43.0005 183.8245 0001207 272.8686  87.2027 15.27584978 47131
